[{"OBJECT_NAME":"OBJECT Y","OBJECT_ID":"2023-085Y","EPOCH":"2026-03-09T22:38:54.992256","MEAN_MOTION":15.32500153,"ECCENTRICITY":0.00063298,"INCLINATION":97.4849,"RA_OF_ASC_NODE":180.8653,"ARG_OF_PERICENTER":67.4431,"MEAN_ANOMALY":292.748,"EPHEMERIS_TYPE":0,"CLASSIFICATION_TYPE":"U","NORAD_CAT_ID":57026,"ELEMENT_SET_NO":999,"REV_AT_EPOCH":15160,"BSTAR":0.00065512761,"MEAN_MOTION_DOT":0.00020524,"MEAN_MOTION_DDOT":0},{"OBJECT_NAME":"STARLINK-32150","OBJECT_ID":"2024-132S","EPOCH":"2026-03-09T22:12:11.467872","MEAN_MOTION":15.30201294,"ECCENTRICITY":0.00016475,"INCLINATION":53.1614,"RA_OF_ASC_NODE":51.5373,"ARG_OF_PERICENTER":99.3052,"MEAN_ANOMALY":260.8135,"EPHEMERIS_TYPE":0,"CLASSIFICATION_TYPE":"U","NORAD_CAT_ID":60294,"ELEMENT_SET_NO":999,"REV_AT_EPOCH":9159,"BSTAR":0.00028082235,"MEAN_MOTION_DOT":7.967e-5,"MEAN_MOTION_DDOT":0}]
